CAPELLA-11 (ACADIA-1)   
1 57693U 23126A   26199.88910702  .00001973  00000+0  25486-3 0  9993
2 57693  53.0075  47.2322 0001834 130.1924 229.9216 14.85186559156834
CAPELLA-14 (ACADIA-4)   
1 59444U 24066C   26197.42798986  .00005130  00000+0  34717-3 0  9995
2 59444  45.6012 101.4049 0002747  73.4558 286.6628 15.07675032116908
CAPELLA-13 (ACADIA-3)   
1 60419U 24142A   26199.60778469  .00001832  00000+0  22511-3 0  9994
2 60419  53.0045 280.4176 0001349  88.5673 271.5462 14.87658319105084
CAPELLA-15 (ACADIA-5)   
1 60544U 24149CE  26199.76790108  .00001579  00000+0  15961-3 0  9990
2 60544  97.6759 271.8791 0003064 324.5067  35.5948 14.92397955104563
CAPELLA-17 (ACADIA-7)   
1 64583U 25135BH  26200.20448946  .00003208  00000+0  32477-3 0  9997
2 64583  97.7711 313.3556 0004235 232.7837 127.2996 14.91645957 58620
CAPELLA-16 (ACADIA-6)   
1 65318U 25188D   26200.17257070  .00002879  00000+0  27478-3 0  9992
2 65318  97.7376 274.8467 0005858 124.8582 235.3190 14.94076721 48699
CAPELLA-19 (ACADIA-9)   
1 67384U 26004X   26199.96780099  .00002293  00000+0  26437-3 0  9995
2 67384  97.7992 197.7626 0001045  51.6177 308.5133 14.86635695 27991
CAPELLA-18 (ACADIA-8)   
1 67385U 26004Y   26199.97782891  .00002107  00000+0  24336-3 0  9999
2 67385  97.8019 197.9309 0001455  96.5447 263.5935 14.86648350 28001
CAPELLA-20 (ACADIA-10)  
1 68485U 26067BX  26199.35128976  .00002607  00000+0  26501-3 0  9991
2 68485  97.7608 157.1526 0001002 163.4112 196.7140 14.91654728 16370
