{"fetched_at":"2026-07-19T17:31:23.521Z","source":"https://celestrak.org/NORAD/elements/gp.php?NAME=CAPELLA&FORMAT=JSON","constellation":"capella","records":[{"OBJECT_NAME":"CAPELLA-11 (ACADIA-1)","OBJECT_ID":"2023-126A","EPOCH":"2026-07-18T21:20:18.846528","CLASSIFICATION_TYPE":"U","MEAN_MOTION":14.85186559,"ECCENTRICITY":0.00018347,"INCLINATION":53.0075,"RA_OF_ASC_NODE":47.2322,"ARG_OF_PERICENTER":130.1924,"MEAN_ANOMALY":229.9216,"EPHEMERIS_TYPE":0,"NORAD_CAT_ID":57693,"ELEMENT_SET_NO":999,"REV_AT_EPOCH":15683,"BSTAR":0.00025486373,"MEAN_MOTION_DOT":0.00001973,"MEAN_MOTION_DDOT":0},{"OBJECT_NAME":"CAPELLA-14 (ACADIA-4)","OBJECT_ID":"2024-066C","EPOCH":"2026-07-16T10:16:18.323904","CLASSIFICATION_TYPE":"U","MEAN_MOTION":15.07675032,"ECCENTRICITY":0.0002747,"INCLINATION":45.6012,"RA_OF_ASC_NODE":101.4049,"ARG_OF_PERICENTER":73.4558,"MEAN_ANOMALY":286.6628,"EPHEMERIS_TYPE":0,"NORAD_CAT_ID":59444,"ELEMENT_SET_NO":999,"REV_AT_EPOCH":11690,"BSTAR":0.00034717,"MEAN_MOTION_DOT":0.0000513,"MEAN_MOTION_DDOT":0},{"OBJECT_NAME":"CAPELLA-13 (ACADIA-3)","OBJECT_ID":"2024-142A","EPOCH":"2026-07-18T14:35:12.597216","CLASSIFICATION_TYPE":"U","MEAN_MOTION":14.87658319,"ECCENTRICITY":0.0001349,"INCLINATION":53.0045,"RA_OF_ASC_NODE":280.4176,"ARG_OF_PERICENTER":88.5673,"MEAN_ANOMALY":271.5462,"EPHEMERIS_TYPE":0,"NORAD_CAT_ID":60419,"ELEMENT_SET_NO":999,"REV_AT_EPOCH":10508,"BSTAR":0.00022511,"MEAN_MOTION_DOT":0.00001832,"MEAN_MOTION_DDOT":0},{"OBJECT_NAME":"CAPELLA-15 (ACADIA-5)","OBJECT_ID":"2024-149CE","EPOCH":"2026-07-18T18:25:46.653312","CLASSIFICATION_TYPE":"U","MEAN_MOTION":14.92397955,"ECCENTRICITY":0.00030645,"INCLINATION":97.6759,"RA_OF_ASC_NODE":271.8791,"ARG_OF_PERICENTER":324.5067,"MEAN_ANOMALY":35.5948,"EPHEMERIS_TYPE":0,"NORAD_CAT_ID":60544,"ELEMENT_SET_NO":999,"REV_AT_EPOCH":10456,"BSTAR":0.0001596076,"MEAN_MOTION_DOT":0.00001579,"MEAN_MOTION_DDOT":0},{"OBJECT_NAME":"CAPELLA-17 (ACADIA-7)","OBJECT_ID":"2025-135BH","EPOCH":"2026-07-19T04:54:27.889344","CLASSIFICATION_TYPE":"U","MEAN_MOTION":14.91645957,"ECCENTRICITY":0.00042356,"INCLINATION":97.7711,"RA_OF_ASC_NODE":313.3556,"ARG_OF_PERICENTER":232.7837,"MEAN_ANOMALY":127.2996,"EPHEMERIS_TYPE":0,"NORAD_CAT_ID":64583,"ELEMENT_SET_NO":999,"REV_AT_EPOCH":5862,"BSTAR":0.00032476563,"MEAN_MOTION_DOT":0.00003208,"MEAN_MOTION_DDOT":0},{"OBJECT_NAME":"CAPELLA-16 (ACADIA-6)","OBJECT_ID":"2025-188D","EPOCH":"2026-07-19T04:08:30.108480","CLASSIFICATION_TYPE":"U","MEAN_MOTION":14.94076721,"ECCENTRICITY":0.00058583,"INCLINATION":97.7376,"RA_OF_ASC_NODE":274.8467,"ARG_OF_PERICENTER":124.8582,"MEAN_ANOMALY":235.319,"EPHEMERIS_TYPE":0,"NORAD_CAT_ID":65318,"ELEMENT_SET_NO":999,"REV_AT_EPOCH":4869,"BSTAR":0.00027477926,"MEAN_MOTION_DOT":0.00002879,"MEAN_MOTION_DDOT":0},{"OBJECT_NAME":"CAPELLA-19 (ACADIA-9)","OBJECT_ID":"2026-004X","EPOCH":"2026-07-18T23:13:38.005536","CLASSIFICATION_TYPE":"U","MEAN_MOTION":14.86635695,"ECCENTRICITY":0.00010456,"INCLINATION":97.7992,"RA_OF_ASC_NODE":197.7626,"ARG_OF_PERICENTER":51.6177,"MEAN_ANOMALY":308.5133,"EPHEMERIS_TYPE":0,"NORAD_CAT_ID":67384,"ELEMENT_SET_NO":999,"REV_AT_EPOCH":2799,"BSTAR":0.00026437051,"MEAN_MOTION_DOT":0.00002293,"MEAN_MOTION_DDOT":0},{"OBJECT_NAME":"CAPELLA-18 (ACADIA-8)","OBJECT_ID":"2026-004Y","EPOCH":"2026-07-18T23:28:04.417824","CLASSIFICATION_TYPE":"U","MEAN_MOTION":14.8664835,"ECCENTRICITY":0.00014556,"INCLINATION":97.8019,"RA_OF_ASC_NODE":197.9309,"ARG_OF_PERICENTER":96.5447,"MEAN_ANOMALY":263.5935,"EPHEMERIS_TYPE":0,"NORAD_CAT_ID":67385,"ELEMENT_SET_NO":999,"REV_AT_EPOCH":2800,"BSTAR":0.00024335884,"MEAN_MOTION_DOT":0.00002107,"MEAN_MOTION_DDOT":0},{"OBJECT_NAME":"CAPELLA-20 (ACADIA-10)","OBJECT_ID":"2026-067BX","EPOCH":"2026-07-18T08:25:51.435264","CLASSIFICATION_TYPE":"U","MEAN_MOTION":14.91654728,"ECCENTRICITY":0.00010024,"INCLINATION":97.7608,"RA_OF_ASC_NODE":157.1526,"ARG_OF_PERICENTER":163.4112,"MEAN_ANOMALY":196.714,"EPHEMERIS_TYPE":0,"NORAD_CAT_ID":68485,"ELEMENT_SET_NO":999,"REV_AT_EPOCH":1637,"BSTAR":0.00026500612,"MEAN_MOTION_DOT":0.00002607,"MEAN_MOTION_DDOT":0}]}
